[
    {
        "Altitude(m)": 612513.9300218307,
        "Argument of Periapsis(deg)": 0.0,
        "Eccentricity": 0.0,
        "Inclination(deg)": 60.0,
        "Latitude(deg)": -28.135958121454006,
        "Longitude(deg)": 2.9131732134757238,
        "Mean Anomaly(deg)": -147.27269999999996,
        "RAAN(deg)": 265.0,
        "Satellite Name": "Test1 1179",
        "Satellite Number": 1179,
        "Semi-Major Axis(m)": 6980739.136638005,
        "Time(s)": 0
    },
    {
        "Altitude(m)": 612708.2977629286,
        "Argument of Periapsis(deg)": 0.00010418945913296404,
        "Eccentricity": 0.0,
        "Inclination(deg)": 60.0,
        "Latitude(deg)": -28.647696594593615,
        "Longitude(deg)": 3.2704048303015023,
        "Mean Anomaly(deg)": -146.65259385453817,
        "RAAN(deg)": 264.99957995086027,
        "Satellite Name": "Test1 1179",
        "Satellite Number": 1179,
        "Semi-Major Axis(m)": 6980739.136638005,
        "Time(s)": 10
    }
]